{
    "data": [
        {
            "ProjectType": "LargeWoodyDebris",
            "PlaceName": "Dakota Creek",
            "Latitude": "48.959",
            "Longitude": "-122.6682",
            "ProjectDescription": "Installed 5 Large Woody Debris",
            "ProjectUrl": ""
        },
        {
            "ProjectType": "LargeWoodyDebris",
            "PlaceName": "Bertrand Creek",
            "Latitude": "48.965408",
            "Longitude": "-122.50964",
            "ProjectDescription": "Large Woody Debris Placement",
            "ProjectUrl": ""
        },
        {
            "ProjectType": "FishPassageBarrier",
            "PlaceName": "Tenmile Creek",
            "Latitude": "48.863199",
            "Longitude": "-122.434536",
            "ProjectDescription": "Channel relocation and Large Woody Debris placement",
            "ProjectUrl": ""
        },
        {
            "ProjectType": "FishPassageBarrier",
            "PlaceName": "Nooksack Tributary",
            "Latitude": "48.87928",
            "Longitude": "-122.55587",
            "ProjectDescription": "Replaced barrier culvert with 25' x 14' bridge",
            "ProjectUrl": ""
        },
        {
            "ProjectType": "FishPassageBarrier",
            "PlaceName": "McClellan Creek",
            "Latitude": "48.95692",
            "Longitude": "-122.53088",
            "ProjectDescription": "Replaced barrier culvert with 40'x14' bridge",
            "ProjectUrl": ""
        },
        {
            "ProjectType": "FishPassageBarrier",
            "PlaceName": "Johnson Creek",
            "Latitude": "48.978283",
            "Longitude": "-122.323071",
            "ProjectDescription": "Replace barrier culvert with 45'x14' bridge",
            "ProjectUrl": ""
        },
        {
            "ProjectType": "FishPassageBarrier",
            "PlaceName": "Double Ditch Creek",
            "Latitude": "48.997855",
            "Longitude": "-122.47383",
            "ProjectDescription": "Replaced barrier culvert with 35' x16' bridge",
            "ProjectUrl": ""
        },
        {
            "ProjectType": "LargeWoodyDebris",
            "PlaceName": "California Estuary",
            "Latitude": "48.960627",
            "Longitude": "-122.735258",
            "ProjectDescription": "Large Woody Debris placement",
            "ProjectUrl": ""
        },
        {
            "ProjectType": "FishPassageBarrier",
            "PlaceName": "Friday Tributary",
            "Latitude": "48.668039",
            "Longitude": "-122.427016",
            "ProjectDescription": "Replaced barrier culvert with 25'x8' culvert",
            "ProjectUrl": ""
        },
        {
            "ProjectType": "LargeWoodyDebris",
            "PlaceName": "Goodwin Creek",
            "Latitude": "48.893027",
            "Longitude": "-122.284633",
            "ProjectDescription": "Large Woody Debris placement",
            "ProjectUrl": ""
        },
        {
            "ProjectType": "FishPassageBarrier",
            "PlaceName": "Butler Creek Tributary",
            "Latitude": "48.874864",
            "Longitude": "-122.682888",
            "ProjectDescription": "Replaced of barrier culvert with 20'x12' bridge",
            "ProjectUrl": ""
        },
        {
            "ProjectType": "LargeWoodyDebris",
            "PlaceName": "Squalicum Creek",
            "Latitude": "48.793763",
            "Longitude": "-122.433089",
            "ProjectDescription": "Large Woody Debris placement",
            "ProjectUrl": ""
        },
        {
            "ProjectType": "LargeWoodyDebris",
            "PlaceName": "Squalicum Creek",
            "Latitude": "48.795727",
            "Longitude": "-122.429629",
            "ProjectDescription": "Large Woody Debris placement",
            "ProjectUrl": ""
        },
        {
            "ProjectType": "FishPassageBarrier",
            "PlaceName": "Scott Creek",
            "Latitude": "48.919617",
            "Longitude": "-122.40881",
            "ProjectDescription": "Replaced barrier culvert with 40'x16' bridge",
            "ProjectUrl": ""
        },
        {
            "ProjectType": "FishPassageBarrier",
            "PlaceName": "Kam Creek",
            "Latitude": "48.96531",
            "Longitude": "-122.38837",
            "ProjectDescription": "Replaced barrier culvert with a 8'x30' culvert. Regraded 50' of channel ",
            "ProjectUrl": ""
        },
        {
            "ProjectType": "FishPassageBarrier",
            "PlaceName": "Deer Creek",
            "Latitude": "48.844463",
            "Longitude": "122.4891739",
            "ProjectDescription": "Replaced barrier culvert with 40'x14' bridge. Regraded 120' of channel, Installed Large Woody Debris",
            "ProjectUrl": ""
        },
        {
            "ProjectType": "FishPassageBarrier",
            "PlaceName": "Squalicum Tributary",
            "Latitude": "48.794688",
            "Longitude": "-122.3525203",
            "ProjectDescription": "Replaced barrier culvert with 20'x14' bridge, regraded 40' of channel",
            "ProjectUrl": ""
        },
        {
            "ProjectType": "FishPassageBarrier",
            "PlaceName": "Squalicum Tributary",
            "Latitude": "48.794688",
            "Longitude": "-122.3525203",
            "ProjectDescription": "Replaced barrier culvert with 20'x14' bridge. Regraded 40' of channel",
            "ProjectUrl": ""
        },
        {
            "ProjectType": "FishPassageBarrier",
            "PlaceName": "California Tributary",
            "Latitude": "48.915811",
            "Longitude": "-122.688694",
            "ProjectDescription": "Replaced barrier culvert with 35'x14' bridge. Regraded 100 ' of channel. Installed Large Woody Debris",
            "ProjectUrl": ""
        },
        {
            "ProjectType": "FishPassageBarrier",
            "PlaceName": "High Creek",
            "Latitude": "48.916534",
            "Longitude": "122.1045761",
            "ProjectDescription": "Replaced barrier culvert with 45'x16' bridge. Regraded 200' of Channel. Installed Large Woody Debris",
            "ProjectUrl": ""
        },
        {
            "ProjectType": "FishPassageBarrier",
            "PlaceName": "High Creek",
            "Latitude": "48.916214",
            "Longitude": "-122.10645",
            "ProjectDescription": "Replaced barrier culvert with 50'x14' bridge. Regraded 600' of channel. Installed Large Woody Debris",
            "ProjectUrl": ""
        },
        {
            "ProjectType": "FishPassageBarrier",
            "PlaceName": "High Creek",
            "Latitude": "48.916267",
            "Longitude": "-122.109399",
            "ProjectDescription": "Removed barrier culvert. Regraded 100' of channel. Installed Large Woody Debris",
            "ProjectUrl": ""
        },
        {
            "ProjectType": "FishPassageBarrier",
            "PlaceName": "High Creek",
            "Latitude": "48.916662",
            "Longitude": "-122.110988",
            "ProjectDescription": "Retrofitted barrier culvert. Regraded 200' of channel. Installed Large Woody Debris",
            "ProjectUrl": ""
        },
        {
            "ProjectType": "FishPassageBarrier",
            "PlaceName": "California Tributary",
            "Latitude": "48.882719",
            "Longitude": "-122.601821",
            "ProjectDescription": "Replaced barrier culvert with 30'x12' bridge",
            "ProjectUrl": ""
        },
        {
            "ProjectType": "FishPassageBarrier",
            "PlaceName": "Dakota Creek",
            "Latitude": "48.966833",
            "Longitude": "-122.728121",
            "ProjectDescription": "Replaced 2 culverts with 35x12' bridges, replaced 1 culvert with 25'x8' culvert",
            "ProjectUrl": ""
        },
        {
            "ProjectType": "FishPassageBarrier",
            "PlaceName": "Deer Creek",
            "Latitude": "48.83888",
            "Longitude": "-122.514961",
            "ProjectDescription": "Replaced barrier culvert with 40'x16' bridge",
            "ProjectUrl": ""
        },
        {
            "ProjectType": "LargeWoodyDebris",
            "PlaceName": "Fishtrap Creek",
            "Latitude": "48.959338",
            "Longitude": "-122.432821",
            "ProjectDescription": "Large Woody Debris placement",
            "ProjectUrl": ""
        },
        {
            "ProjectType": "LargeWoodyDebris",
            "PlaceName": "Fishtrap Creek",
            "Latitude": "48.958098",
            "Longitude": "-122.434623",
            "ProjectDescription": "Large Woody Debris placement",
            "ProjectUrl": ""
        },
        {
            "ProjectType": "FishPassageBarrier",
            "PlaceName": "Friday Tributary",
            "Latitude": "48.668039",
            "Longitude": "-122.427016",
            "ProjectDescription": "Replaced 3 barrier culverts with 25'x8' culverts, Replaced 1 barrier culvert with 30'x12' bridge",
            "ProjectUrl": ""
        },
        {
            "ProjectType": "FishPassageBarrier",
            "PlaceName": "High Creek",
            "Latitude": "48.916158",
            "Longitude": "-122.108638",
            "ProjectDescription": "Replaced Barrier culvert with 50'x16'' bridge",
            "ProjectUrl": ""
        },
        {
            "ProjectType": "FishPassageBarrier",
            "PlaceName": "Innis Creek",
            "Latitude": "48.652535",
            "Longitude": "-122.204382",
            "ProjectDescription": "Replaced barrier culvert with 70'x12' bridge",
            "ProjectUrl": ""
        },
        {
            "ProjectType": "FishPassageBarrier",
            "PlaceName": "Silver Tributary",
            "Latitude": "48.826253",
            "Longitude": "-122.545474",
            "ProjectDescription": "Replaced barrier culvert with 50'x12' bridge",
            "ProjectUrl": ""
        },
        {
            "ProjectType": "LargeWoodyDebris",
            "PlaceName": "Squalicum Creek",
            "Latitude": "48.793602",
            "Longitude": "-122.431147",
            "ProjectDescription": "Large Woody Debris placement",
            "ProjectUrl": ""
        },
        {
            "ProjectType": "LargeWoodyDebris",
            "PlaceName": "Terrell Creek",
            "Latitude": "48.882749",
            "Longitude": "-122.691332",
            "ProjectDescription": "Large Woody Debris and Gravel placement",
            "ProjectUrl": ""
        },
        {
            "ProjectType": "RiperianPlanting",
            "PlaceName": "Airport Creek",
            "Latitude": "48.7788",
            "Longitude": "-122.5607",
            "ProjectDescription": "Riperian Tree Planting for 150 ft",
            "ProjectUrl": ""
        },
        {
            "ProjectType": "RiperianPlanting",
            "PlaceName": "Bertrand Creek",
            "Latitude": "48.9613",
            "Longitude": "-122.5095",
            "ProjectDescription": "Riperian Tree Planting for 400 ft",
            "ProjectUrl": ""
        },
        {
            "ProjectType": "RiperianPlanting",
            "PlaceName": "Bertrand Creek",
            "Latitude": "48.9653",
            "Longitude": "-122.5084",
            "ProjectDescription": "Riperian Tree Planting for 200 ft",
            "ProjectUrl": ""
        },
        {
            "ProjectType": "RiperianPlanting",
            "PlaceName": "Bertrand Creek",
            "Latitude": "48.965",
            "Longitude": "-122.508",
            "ProjectDescription": "Riperian Tree Planting for 250 ft",
            "ProjectUrl": ""
        },
        {
            "ProjectType": "RiperianPlanting",
            "PlaceName": "Chucanut Creek",
            "Latitude": "48.6597",
            "Longitude": "-122.4125",
            "ProjectDescription": "Riperian Tree Planting for 100 ft",
            "ProjectUrl": ""
        },
        {
            "ProjectType": "RiperianPlanting",
            "PlaceName": "Deer Creek",
            "Latitude": "48.8437",
            "Longitude": "-122.4853",
            "ProjectDescription": "Riperian Tree Planting for 300 ft",
            "ProjectUrl": ""
        },
        {
            "ProjectType": "RiperianPlanting",
            "PlaceName": "Fishtrap Creek",
            "Latitude": "48.5996",
            "Longitude": "-122.4424",
            "ProjectDescription": "Riperian Tree Planting for 2000 ft",
            "ProjectUrl": ""
        },
        {
            "ProjectType": "RiperianPlanting",
            "PlaceName": "Fishtrap Creek",
            "Latitude": "48.9637",
            "Longitude": "-122.4331",
            "ProjectDescription": "Riperian Tree Planting for 400 ft",
            "ProjectUrl": ""
        },
        {
            "ProjectType": "RiperianPlanting",
            "PlaceName": "Fishtrap Creek",
            "Latitude": "48.9665",
            "Longitude": "-122.4295",
            "ProjectDescription": "Riperian Tree Planting for 600 ft",
            "ProjectUrl": ""
        },
        {
            "ProjectType": "RiperianPlanting",
            "PlaceName": "Fishtrap Creek",
            "Latitude": "48.9665",
            "Longitude": "-122.4297",
            "ProjectDescription": "Riperian Tree Planting for 600 ft",
            "ProjectUrl": ""
        },
        {
            "ProjectType": "RiperianPlanting",
            "PlaceName": "Kam Creek",
            "Latitude": "48.9559",
            "Longitude": "-122.423",
            "ProjectDescription": "Riperian Tree Planting for 500 ft",
            "ProjectUrl": ""
        },
        {
            "ProjectType": "RiperianPlanting",
            "PlaceName": "Landingstrip Creek",
            "Latitude": "48.716",
            "Longitude": "-122.1969",
            "ProjectDescription": "Riperian Tree Planting for 600 ft",
            "ProjectUrl": ""
        },
        {
            "ProjectType": "RiperianPlanting",
            "PlaceName": "Landingstrip Creek",
            "Latitude": "48.692",
            "Longitude": "-122.1827",
            "ProjectDescription": "Riperian Tree Planting for 600 ft",
            "ProjectUrl": ""
        },
        {
            "ProjectType": "RiperianPlanting",
            "PlaceName": "Landingstrip Creek",
            "Latitude": "48.71",
            "Longitude": "-122.1938",
            "ProjectDescription": "Riperian Tree Planting for 300 ft",
            "ProjectUrl": ""
        },
        {
            "ProjectType": "RiperianPlanting",
            "PlaceName": "Macaulay Creek",
            "Latitude": "48.8337",
            "Longitude": "-122.2436",
            "ProjectDescription": "Riperian Tree Planting for 1200 ft",
            "ProjectUrl": ""
        },
        {
            "ProjectType": "RiperianPlanting",
            "PlaceName": "Macaulay Creek",
            "Latitude": "48.8325",
            "Longitude": "-122.2384",
            "ProjectDescription": "Riperian Tree Planting for 500 ft",
            "ProjectUrl": ""
        },
        {
            "ProjectType": "RiperianPlanting",
            "PlaceName": "Mainstem Nooksack River",
            "Latitude": "48.7953",
            "Longitude": "-122.5935",
            "ProjectDescription": "Riperian Tree Planting for 300 ft",
            "ProjectUrl": ""
        },
        {
            "ProjectType": "RiperianPlanting",
            "PlaceName": "Pangborn Creek",
            "Latitude": "48.984",
            "Longitude": "-122.3344",
            "ProjectDescription": "Riperian Tree Planting for 300 ft",
            "ProjectUrl": ""
        },
        {
            "ProjectType": "RiperianPlanting",
            "PlaceName": "Silver Creek",
            "Latitude": "48.8236",
            "Longitude": "-122.5274",
            "ProjectDescription": "Riperian Tree Planting for 300 ft",
            "ProjectUrl": ""
        },
        {
            "ProjectType": "RiperianPlanting",
            "PlaceName": "Smith Creek",
            "Latitude": "48.8412",
            "Longitude": "-122.2686",
            "ProjectDescription": "Riperian Tree Planting for 300 ft",
            "ProjectUrl": ""
        },
        {
            "ProjectType": "RiperianPlanting",
            "PlaceName": "Smith Creek",
            "Latitude": "48.8557",
            "Longitude": "-122.2983",
            "ProjectDescription": "Riperian Tree Planting for 150 ft",
            "ProjectUrl": ""
        },
        {
            "ProjectType": "RiperianPlanting",
            "PlaceName": "Squalicum Creek",
            "Latitude": "48.7937",
            "Longitude": "-122.4334",
            "ProjectDescription": "Riperian Tree Planting for 400 ft",
            "ProjectUrl": ""
        },
        {
            "ProjectType": "RiperianPlanting",
            "PlaceName": "Squalicum Creek",
            "Latitude": "48.7947",
            "Longitude": "-122.4316",
            "ProjectDescription": "Riperian Tree Planting for 1200 ft",
            "ProjectUrl": ""
        },
        {
            "ProjectType": "RiperianPlanting",
            "PlaceName": "Squalicum Creek",
            "Latitude": "48.7958",
            "Longitude": "-122.4296",
            "ProjectDescription": "Riperian Tree Planting for 600 ft",
            "ProjectUrl": ""
        },
        {
            "ProjectType": "RiperianPlanting",
            "PlaceName": "Squalicum Creek",
            "Latitude": "48.7628",
            "Longitude": "-122.5075",
            "ProjectDescription": "Riperian Tree Planting for 400 ft",
            "ProjectUrl": ""
        },
        {
            "ProjectType": "RiperianPlanting",
            "PlaceName": "Squalicum Creek",
            "Latitude": "48.7732",
            "Longitude": "-122.4942",
            "ProjectDescription": "Riperian Tree Planting for 300 ft",
            "ProjectUrl": ""
        },
        {
            "ProjectType": "RiperianPlanting",
            "PlaceName": "Squalicum Creek",
            "Latitude": "48.7765",
            "Longitude": "-122.4791",
            "ProjectDescription": "Riperian Tree Planting for 500 ft",
            "ProjectUrl": ""
        },
        {
            "ProjectType": "RiperianPlanting",
            "PlaceName": "Sumas Tributary",
            "Latitude": "48.9628",
            "Longitude": "-122.3607",
            "ProjectDescription": "Riperian Tree Planting for 300 ft",
            "ProjectUrl": ""
        },
        {
            "ProjectType": "RiperianPlanting",
            "PlaceName": "Tenmile Creek",
            "Latitude": "48.8659",
            "Longitude": "-122.4822",
            "ProjectDescription": "Riperian Tree Planting for 500 ft",
            "ProjectUrl": ""
        },
        {
            "ProjectType": "RiperianPlanting",
            "PlaceName": "Terrell Creek",
            "Latitude": "48.9024",
            "Longitude": "-122.7473",
            "ProjectDescription": "Riperian Tree Planting for 500 ft",
            "ProjectUrl": ""
        },
        {
            "ProjectType": "RiperianPlanting",
            "PlaceName": "Terrell Creek",
            "Latitude": "48.8979",
            "Longitude": "-122.7254",
            "ProjectDescription": "Riperian Tree Planting for 500 ft",
            "ProjectUrl": ""
        },
        {
            "ProjectType": "RiperianPlanting",
            "PlaceName": "Terrell Creek",
            "Latitude": "48.8859",
            "Longitude": "-122.697",
            "ProjectDescription": "Riperian Tree Planting for 400 ft",
            "ProjectUrl": ""
        },
        {
            "ProjectType": "RiperianPlanting",
            "PlaceName": "Terrell Tributary",
            "Latitude": "48.9174",
            "Longitude": "-122.7407",
            "ProjectDescription": "Riperian Tree Planting for 100 ft",
            "ProjectUrl": ""
        },
        {
            "ProjectType": "RiperianPlanting",
            "PlaceName": "Terrell Creek",
            "Latitude": "48.8818",
            "Longitude": "-122.69",
            "ProjectDescription": "Riperian Tree Planting",
            "ProjectUrl": ""
        },
        {
            "ProjectType": "RiperianPlanting",
            "PlaceName": "Terrell Creek",
            "Latitude": "48.8985",
            "Longitude": "-122.7021",
            "ProjectDescription": "Riperian Tree Planting for 500 ft",
            "ProjectUrl": ""
        }
    ],
    "errors": [
        {
            "type": "FieldMismatch",
            "code": "TooFewFields",
            "message": "Too few fields: expected 7 fields but parsed 6",
            "row": 0
        },
        {
            "type": "FieldMismatch",
            "code": "TooFewFields",
            "message": "Too few fields: expected 7 fields but parsed 6",
            "row": 1
        },
        {
            "type": "FieldMismatch",
            "code": "TooFewFields",
            "message": "Too few fields: expected 7 fields but parsed 6",
            "row": 2
        },
        {
            "type": "FieldMismatch",
            "code": "TooFewFields",
            "message": "Too few fields: expected 7 fields but parsed 6",
            "row": 3
        },
        {
            "type": "FieldMismatch",
            "code": "TooFewFields",
            "message": "Too few fields: expected 7 fields but parsed 6",
            "row": 4
        },
        {
            "type": "FieldMismatch",
            "code": "TooFewFields",
            "message": "Too few fields: expected 7 fields but parsed 6",
            "row": 5
        },
        {
            "type": "FieldMismatch",
            "code": "TooFewFields",
            "message": "Too few fields: expected 7 fields but parsed 6",
            "row": 6
        },
        {
            "type": "FieldMismatch",
            "code": "TooFewFields",
            "message": "Too few fields: expected 7 fields but parsed 6",
            "row": 7
        },
        {
            "type": "FieldMismatch",
            "code": "TooFewFields",
            "message": "Too few fields: expected 7 fields but parsed 6",
            "row": 8
        },
        {
            "type": "FieldMismatch",
            "code": "TooFewFields",
            "message": "Too few fields: expected 7 fields but parsed 6",
            "row": 9
        },
        {
            "type": "FieldMismatch",
            "code": "TooFewFields",
            "message": "Too few fields: expected 7 fields but parsed 6",
            "row": 10
        },
        {
            "type": "FieldMismatch",
            "code": "TooFewFields",
            "message": "Too few fields: expected 7 fields but parsed 6",
            "row": 11
        },
        {
            "type": "FieldMismatch",
            "code": "TooFewFields",
            "message": "Too few fields: expected 7 fields but parsed 6",
            "row": 12
        },
        {
            "type": "FieldMismatch",
            "code": "TooFewFields",
            "message": "Too few fields: expected 7 fields but parsed 6",
            "row": 13
        },
        {
            "type": "FieldMismatch",
            "code": "TooFewFields",
            "message": "Too few fields: expected 7 fields but parsed 6",
            "row": 14
        },
        {
            "type": "FieldMismatch",
            "code": "TooFewFields",
            "message": "Too few fields: expected 7 fields but parsed 6",
            "row": 15
        },
        {
            "type": "FieldMismatch",
            "code": "TooFewFields",
            "message": "Too few fields: expected 7 fields but parsed 6",
            "row": 16
        },
        {
            "type": "FieldMismatch",
            "code": "TooFewFields",
            "message": "Too few fields: expected 7 fields but parsed 6",
            "row": 17
        },
        {
            "type": "FieldMismatch",
            "code": "TooFewFields",
            "message": "Too few fields: expected 7 fields but parsed 6",
            "row": 18
        },
        {
            "type": "FieldMismatch",
            "code": "TooFewFields",
            "message": "Too few fields: expected 7 fields but parsed 6",
            "row": 19
        },
        {
            "type": "FieldMismatch",
            "code": "TooFewFields",
            "message": "Too few fields: expected 7 fields but parsed 6",
            "row": 20
        },
        {
            "type": "FieldMismatch",
            "code": "TooFewFields",
            "message": "Too few fields: expected 7 fields but parsed 6",
            "row": 21
        },
        {
            "type": "FieldMismatch",
            "code": "TooFewFields",
            "message": "Too few fields: expected 7 fields but parsed 6",
            "row": 22
        },
        {
            "type": "FieldMismatch",
            "code": "TooFewFields",
            "message": "Too few fields: expected 7 fields but parsed 6",
            "row": 23
        },
        {
            "type": "FieldMismatch",
            "code": "TooFewFields",
            "message": "Too few fields: expected 7 fields but parsed 6",
            "row": 24
        },
        {
            "type": "FieldMismatch",
            "code": "TooFewFields",
            "message": "Too few fields: expected 7 fields but parsed 6",
            "row": 25
        },
        {
            "type": "FieldMismatch",
            "code": "TooFewFields",
            "message": "Too few fields: expected 7 fields but parsed 6",
            "row": 26
        },
        {
            "type": "FieldMismatch",
            "code": "TooFewFields",
            "message": "Too few fields: expected 7 fields but parsed 6",
            "row": 27
        },
        {
            "type": "FieldMismatch",
            "code": "TooFewFields",
            "message": "Too few fields: expected 7 fields but parsed 6",
            "row": 28
        },
        {
            "type": "FieldMismatch",
            "code": "TooFewFields",
            "message": "Too few fields: expected 7 fields but parsed 6",
            "row": 29
        },
        {
            "type": "FieldMismatch",
            "code": "TooFewFields",
            "message": "Too few fields: expected 7 fields but parsed 6",
            "row": 30
        },
        {
            "type": "FieldMismatch",
            "code": "TooFewFields",
            "message": "Too few fields: expected 7 fields but parsed 6",
            "row": 31
        },
        {
            "type": "FieldMismatch",
            "code": "TooFewFields",
            "message": "Too few fields: expected 7 fields but parsed 6",
            "row": 32
        },
        {
            "type": "FieldMismatch",
            "code": "TooFewFields",
            "message": "Too few fields: expected 7 fields but parsed 6",
            "row": 33
        },
        {
            "type": "FieldMismatch",
            "code": "TooFewFields",
            "message": "Too few fields: expected 7 fields but parsed 6",
            "row": 34
        },
        {
            "type": "FieldMismatch",
            "code": "TooFewFields",
            "message": "Too few fields: expected 7 fields but parsed 6",
            "row": 35
        },
        {
            "type": "FieldMismatch",
            "code": "TooFewFields",
            "message": "Too few fields: expected 7 fields but parsed 6",
            "row": 36
        },
        {
            "type": "FieldMismatch",
            "code": "TooFewFields",
            "message": "Too few fields: expected 7 fields but parsed 6",
            "row": 37
        },
        {
            "type": "FieldMismatch",
            "code": "TooFewFields",
            "message": "Too few fields: expected 7 fields but parsed 6",
            "row": 38
        },
        {
            "type": "FieldMismatch",
            "code": "TooFewFields",
            "message": "Too few fields: expected 7 fields but parsed 6",
            "row": 39
        },
        {
            "type": "FieldMismatch",
            "code": "TooFewFields",
            "message": "Too few fields: expected 7 fields but parsed 6",
            "row": 40
        },
        {
            "type": "FieldMismatch",
            "code": "TooFewFields",
            "message": "Too few fields: expected 7 fields but parsed 6",
            "row": 41
        },
        {
            "type": "FieldMismatch",
            "code": "TooFewFields",
            "message": "Too few fields: expected 7 fields but parsed 6",
            "row": 42
        },
        {
            "type": "FieldMismatch",
            "code": "TooFewFields",
            "message": "Too few fields: expected 7 fields but parsed 6",
            "row": 43
        },
        {
            "type": "FieldMismatch",
            "code": "TooFewFields",
            "message": "Too few fields: expected 7 fields but parsed 6",
            "row": 44
        },
        {
            "type": "FieldMismatch",
            "code": "TooFewFields",
            "message": "Too few fields: expected 7 fields but parsed 6",
            "row": 45
        },
        {
            "type": "FieldMismatch",
            "code": "TooFewFields",
            "message": "Too few fields: expected 7 fields but parsed 6",
            "row": 46
        },
        {
            "type": "FieldMismatch",
            "code": "TooFewFields",
            "message": "Too few fields: expected 7 fields but parsed 6",
            "row": 47
        },
        {
            "type": "FieldMismatch",
            "code": "TooFewFields",
            "message": "Too few fields: expected 7 fields but parsed 6",
            "row": 48
        },
        {
            "type": "FieldMismatch",
            "code": "TooFewFields",
            "message": "Too few fields: expected 7 fields but parsed 6",
            "row": 49
        },
        {
            "type": "FieldMismatch",
            "code": "TooFewFields",
            "message": "Too few fields: expected 7 fields but parsed 6",
            "row": 50
        },
        {
            "type": "FieldMismatch",
            "code": "TooFewFields",
            "message": "Too few fields: expected 7 fields but parsed 6",
            "row": 51
        },
        {
            "type": "FieldMismatch",
            "code": "TooFewFields",
            "message": "Too few fields: expected 7 fields but parsed 6",
            "row": 52
        },
        {
            "type": "FieldMismatch",
            "code": "TooFewFields",
            "message": "Too few fields: expected 7 fields but parsed 6",
            "row": 53
        },
        {
            "type": "FieldMismatch",
            "code": "TooFewFields",
            "message": "Too few fields: expected 7 fields but parsed 6",
            "row": 54
        },
        {
            "type": "FieldMismatch",
            "code": "TooFewFields",
            "message": "Too few fields: expected 7 fields but parsed 6",
            "row": 55
        },
        {
            "type": "FieldMismatch",
            "code": "TooFewFields",
            "message": "Too few fields: expected 7 fields but parsed 6",
            "row": 56
        },
        {
            "type": "FieldMismatch",
            "code": "TooFewFields",
            "message": "Too few fields: expected 7 fields but parsed 6",
            "row": 57
        },
        {
            "type": "FieldMismatch",
            "code": "TooFewFields",
            "message": "Too few fields: expected 7 fields but parsed 6",
            "row": 58
        },
        {
            "type": "FieldMismatch",
            "code": "TooFewFields",
            "message": "Too few fields: expected 7 fields but parsed 6",
            "row": 59
        },
        {
            "type": "FieldMismatch",
            "code": "TooFewFields",
            "message": "Too few fields: expected 7 fields but parsed 6",
            "row": 60
        },
        {
            "type": "FieldMismatch",
            "code": "TooFewFields",
            "message": "Too few fields: expected 7 fields but parsed 6",
            "row": 61
        },
        {
            "type": "FieldMismatch",
            "code": "TooFewFields",
            "message": "Too few fields: expected 7 fields but parsed 6",
            "row": 62
        },
        {
            "type": "FieldMismatch",
            "code": "TooFewFields",
            "message": "Too few fields: expected 7 fields but parsed 6",
            "row": 63
        },
        {
            "type": "FieldMismatch",
            "code": "TooFewFields",
            "message": "Too few fields: expected 7 fields but parsed 6",
            "row": 64
        },
        {
            "type": "FieldMismatch",
            "code": "TooFewFields",
            "message": "Too few fields: expected 7 fields but parsed 6",
            "row": 65
        },
        {
            "type": "FieldMismatch",
            "code": "TooFewFields",
            "message": "Too few fields: expected 7 fields but parsed 6",
            "row": 66
        },
        {
            "type": "FieldMismatch",
            "code": "TooFewFields",
            "message": "Too few fields: expected 7 fields but parsed 6",
            "row": 67
        },
        {
            "type": "FieldMismatch",
            "code": "TooFewFields",
            "message": "Too few fields: expected 7 fields but parsed 6",
            "row": 68
        }
    ],
    "meta": {
        "delimiter": ",",
        "linebreak": "\r\n",
        "aborted": false,
        "truncated": false,
        "cursor": 6880,
        "fields": [
            "ProjectType",
            "PlaceName",
            "Latitude",
            "Longitude",
            "ProjectDescription",
            "ProjectUrl",
            ""
        ]
    }
}